norad_id,name,regime,epoch,line1,line2,inclination,eccentricity,mean_motion,raan,arg_pericenter,mean_anomaly
44333,AT&T T-16,GEO,20009.56160479,1 44333U 19034A   20009.56160479 -.00000101 +00000-0 +00000-0 0 0269\,2 44333 000.0175 027.1495 0001095 170.6751 012.0545 01.0027039200208,0.0175,0.0001095,1.00270392,27.1495,170.6751,12.0545
44333,AT&T T-16,GEO,20010.71594616,1 44333U 19034A   20010.71594616 -.00000105  00000-0  00000+0 0  2704\,2 44333   0.0170  30.2175 0001074 165.9012  70.4638  1.00269323  2096,0.017,0.0001074,1.00269323,30.2175,165.9012,70.4638
44333,AT&T T-16,GEO,20011.07480986,1 44333U 19034A   20011.07480986 -.00000106  00000-0  00000+0 0  2710\,2 44333   0.0164  26.0849 0000800 172.1095 197.9349  1.00272312  2105,0.0164,8e-05,1.00272312,26.0849,172.1095,197.9349
44333,AT&T T-16,GEO,20011.60983194,1 44333U 19034A   20011.60983194 -.00000108  00000-0  00000+0 0  2721\,2 44333   0.0172  24.8716 0001239 170.1119  34.2819  1.00268682  2105,0.0172,0.0001239,1.00268682,24.8716,170.1119,34.2819
44333,AT&T T-16,GEO,20012.11229052,1 44333U 19034A   20012.11229052 -.00000110  00000-0  00000+0 0  2738\,2 44333   0.0168  28.7940 0000721 165.1390 216.7138  1.00270327  2113,0.0168,7.21e-05,1.00270327,28.794,165.139,216.7138
44333,AT&T T-16,GEO,20012.46622736,1 44333U 19034A   20012.46622736 -.00000111  00000-0  00000+0 0  2744\,2 44333   0.0246  51.3962 0000939 140.4415 346.5902  1.00267870  2111,0.0246,9.39e-05,1.0026787,51.3962,140.4415,346.5902
44333,AT&T T-16,GEO,20013.11724646,1 44333U 19034A   20013.11724646 -.00000113  00000-0  00000+0 0  2753\,2 44333   0.0235  52.9171 0000576 130.6831 229.8339  1.00268666  2120,0.0235,5.76e-05,1.00268666,52.9171,130.6831,229.8339
44333,AT&T T-16,GEO,20013.83501328,1 44333U 19034A   20013.83501328 -.00000114 +00000-0 +00000-0 0 0001\,2 44333 000.0237 056.6274 0000429 111.7924 144.1101 01.0026679800213,0.0237,4.29e-05,1.00266798,56.6274,111.7924,144.1101
44333,AT&T T-16,GEO,20014.12224997,1 44333U 19034A   20014.12224997 -.00000115  00000-0  00000+0 0  2762\,2 44333   0.0172  56.3304 0000668 131.8698 227.9985  1.00268112  2135,0.0172,6.68e-05,1.00268112,56.3304,131.8698,227.9985
44333,AT&T T-16,GEO,20014.78591160,1 44333U 19034A   20014.78591160 -.00000116 +00000-0 +00000-0 0 0001\,2 44333 000.0185 045.8169 0000641 136.7360 113.2096 01.0026805700214,0.0185,6.41e-05,1.00268057,45.8169,136.736,113.2096
44333,AT&T T-16,GEO,20015.37896633,1 44333U 19034A   20015.37896633 -.00000117  00000-0  00000+0 0  2775\,2 44333   0.0191  48.3972 0000628 130.3945 331.0466  1.00268029  2142,0.0191,6.28e-05,1.00268029,48.3972,130.3945,331.0466
44333,AT&T T-16,GEO,20015.48623049,1 44333U 19034A   20015.48623049 -.00000117 +00000-0 +00000-0 0 0001\,2 44333 000.0181 046.5639 0000619 131.0096 010.9842 01.0026804500215,0.0181,6.19e-05,1.00268045,46.5639,131.0096,10.9842
44333,AT&T T-16,GEO,20016.13226615,1 44333U 19034A   20016.13226615 -.00000118 +00000-0 +00000-0 0 0001\,2 44333 000.0193 051.7759 0000511 124.8658 245.1207 01.0026963100215,0.0193,5.11e-05,1.00269631,51.7759,124.8658,245.1207
44333,AT&T T-16,GEO,20016.41936007,1 44333U 19034A   20016.41936007 -.00000118  00000-0  00000+0 0  2783\,2 44333   0.0187  51.0353 0001123 125.6714 348.6980  1.00269064  2159,0.0187,0.0001123,1.00269064,51.0353,125.6714,348.698
44333,AT&T T-16,GEO,20016.55396940,1 44333U 19034A   20016.55396940 -.00000118 +00000-0 +00000-0 0 0001\,2 44333 000.0198 050.1950 0001083 129.7649 034.0364 01.0026996800216,0.0198,0.0001083,1.00269968,50.195,129.7649,34.0364
44333,AT&T T-16,GEO,20017.20902102,1 44333U 19034A   20017.20902102 -.00000119 +00000-0 +00000-0 0 0001\,2 44333 000.0185 053.4232 0000581 115.1132 281.9268 01.0027245300217,0.0185,5.81e-05,1.00272453,53.4232,115.1132,281.9268
44333,AT&T T-16,GEO,20017.38313205,1 44333U 19034A   20017.38313205 -.00000119  00000-0  00000+0 0  2791\,2 44333   0.0235  54.7812 0001116 105.7617 352.7948  1.00267757  2164,0.0235,0.0001116,1.00267757,54.7812,105.7617,352.7948
44333,AT&T T-16,GEO,20017.56799750,1 44333U 19034A   20017.56799750 -.00000119 +00000-0 +00000-0 0 0001\,2 44333 000.0183 054.0257 0001050 111.5676 054.4576 01.0026987600217,0.0183,0.000105,1.00269876,54.0257,111.5676,54.4576
44333,AT&T T-16,GEO,20017.71646559,1 44333U 19034A   20017.71646559 -.00000119  00000-0  00000+0 0  2801\,2 44333   0.0016 131.5260 0001050  33.1499 108.9688  1.00269955  2165,0.0016,0.000105,1.00269955,131.526,33.1499,108.9688
44333,AT&T T-16,GEO,20018.14222022,1 44333U 19034A   20018.14222022 -.00000119  00000-0  00000+0 0  2815\,2 44333   0.0229  54.9697 0000612  80.7819 291.6071  1.00268694  2176,0.0229,6.12e-05,1.00268694,54.9697,80.7819,291.6071
44333,AT&T T-16,GEO,20018.59961520,1 44333U 19034A   20018.59961520 -.00000119 +00000-0 +00000-0 0 0001\,2 44333 000.0165 047.6358 0001070 113.0008 071.8186 01.0026971200218,0.0165,0.000107,1.00269712,47.6358,113.0008,71.8186
44333,AT&T T-16,GEO,20018.71646546,1 44333U 19034A   20018.71646546 -.00000119  00000-0  00000+0 0  2831\,2 44333   0.0228  51.8124 0001105 105.3156 117.5283  1.00268222  2170,0.0228,0.0001105,1.00268222,51.8124,105.3156,117.5283
44333,AT&T T-16,GEO,20019.14726428,1 44333U 19034A   20019.14726428 -.00000120  00000-0  00000+0 0  2840\,2 44333   0.0219  50.4972 0000759  83.0493 296.6260  1.00269314  2184,0.0219,7.59e-05,1.00269314,50.4972,83.0493,296.626
44333,AT&T T-16,GEO,20019.21897233,1 44333U 19034A   20019.21897233 -.00000120 +00000-0 +00000-0 0 0001\,2 44333 000.0219 050.4161 0000738 082.5803 323.0609 01.0026902500219,0.0219,7.38e-05,1.00269025,50.4161,82.5803,323.0609
44333,AT&T T-16,GEO,20019.54979778,1 44333U 19034A   20019.54979778 -.00000120 +00000-0 +00000-0 0 0001\,2 44333 000.0163 022.8725 0001137 141.5304 051.0605 01.0026840100219,0.0163,0.0001137,1.00268401,22.8725,141.5304,51.0605
44333,AT&T T-16,GEO,20020.15222369,1 44333U 19034A   20020.15222369 -.00000120  00000-0  00000+0 0  2859\,2 44333   0.0153  17.4888 0000622 121.4593 293.9832  1.00269576  2193,0.0153,6.22e-05,1.00269576,17.4888,121.4593,293.9832
44333,AT&T T-16,GEO,20020.51438167,1 44333U 19034A   20020.51438167 -.00000120 +00000-0 +00000-0 0 0001\,2 44333 000.0160 020.2887 0000606 112.0135 071.3591 01.0026909600220,0.016,6.06e-05,1.00269096,20.2887,112.0135,71.3591
44333,AT&T T-16,GEO,20020.71646525,1 44333U 19034A   20020.71646525 -.00000121  00000-0  00000+0 0  2867\,2 44333   0.0223  50.5971 0000728  72.0949 153.9394  1.00267804  2195,0.0223,7.28e-05,1.00267804,50.5971,72.0949,153.9394
44333,AT&T T-16,GEO,20020.87007497,1 44333U 19034A   20020.87007497 -.00000121 +00000-0 +00000-0 0 0001\,2 44333 000.0229 050.7141 0000726 071.0172 210.3495 01.0026774400220,0.0229,7.26e-05,1.00267744,50.7141,71.0172,210.3495
44333,AT&T T-16,GEO,20021.15716882,1 44333U 19034A   20021.15716882 -.00000121 +00000-0 +00000-0 0 0001\,2 44333 000.0235 054.5720 0000738 066.9128 314.2298 01.0026759200220,0.0235,7.38e-05,1.00267592,54.572,66.9128,314.2298
44333,AT&T T-16,GEO,20021.53243779,1 44333U 19034A   20021.53243779 -.00000121 +00000-0 +00000-0 0 0001\,2 44333 000.0248 056.9366 0000751 064.9491 089.2924 01.0026757000221,0.0248,7.51e-05,1.0026757,56.9366,64.9491,89.2924
44333,AT&T T-16,GEO,20021.71646694,1 44333U 19034A   20021.71646694 -.00000122  00000-0  00000+0 0  2877\,2 44333   0.0246  58.6504 0000757  62.0309 156.9271  1.00267546  2204,0.0246,7.57e-05,1.00267546,58.6504,62.0309,156.9271
44333,AT&T T-16,GEO,20022.55049473,1 44333U 19034A   20022.55049473 -.00000122 +00000-0 +00000-0 0 0001\,2 44333 000.0269 064.3781 0000755 066.3324 087.9628 01.0026749300222,0.0269,7.55e-05,1.00267493,64.3781,66.3324,87.9628
44333,AT&T T-16,GEO,20023.18144851,1 44333U 19034A   20023.18144851 -.00000123  00000-0  00000+0 0  2880\,2 44333   0.0276  68.9782 0000653  58.9400 318.5191  1.00268836  2222,0.0276,6.53e-05,1.00268836,68.9782,58.94,318.5191
44333,AT&T T-16,GEO,20023.52612292,1 44333U 19034A   20023.52612292 -.00000123 +00000-0 +00000-0 0 0001\,2 44333 000.0266 068.7426 0001000 083.8738 058.2485 01.0026962900223,0.0266,0.0001,1.00269629,68.7426,83.8738,58.2485
44333,AT&T T-16,GEO,20023.59791819,1 44333U 19034A   20023.59791819 -.00000124  00000-0  00000+0 0  2899\,2 44333   0.0266  69.1955 0000860  82.8507  84.7376  1.00271903  2226,0.0266,8.6e-05,1.00271903,69.1955,82.8507,84.7376
44333,AT&T T-16,GEO,20024.18140189,1 44333U 19034A   20024.18140189 -.00000123  00000-0  00000+0 0  2904\,2 44333   0.0252  70.2495 0000718  27.8903 349.2728  1.00264619  2231,0.0252,7.18e-05,1.00264619,70.2495,27.8903,349.2728
44333,AT&T T-16,GEO,20024.31573991,1 44333U 19034A   20024.31573991 -.00000123  00000-0  00000+0 0  2911\,2 44333   0.0243  71.5558 0000732  48.8453  15.5090  1.00269495  2236,0.0243,7.32e-05,1.00269495,71.5558,48.8453,15.509
44333,AT&T T-16,GEO,20024.72202131,1 44333U 19034A   20024.72202131 -.00000123  00000-0  00000+0 0  2922\,2 44333   0.0237  71.3866 0000950  74.4320 136.7560  1.00268582  2233,0.0237,9.5e-05,1.00268582,71.3866,74.432,136.756
44333,AT&T T-16,GEO,20025.46434404,1 44333U 19034A   20025.46434404 -.00000123  00000-0  00000+0 0  2935\,2 44333   0.0224  72.7806 0000634  38.8822  78.8808  1.00268045  2244,0.0224,6.34e-05,1.00268045,72.7806,38.8822,78.8808
44333,AT&T T-16,GEO,20025.54910413,1 44333U 19034A   20025.54910413 -.00000122 +00000-0 +00000-0 0 0001\,2 44333 000.0228 073.6578 0000632 037.2057 110.2766 01.0026797900225,0.0228,6.32e-05,1.00267979,73.6578,37.2057,110.2766
44333,AT&T T-16,GEO,20026.25394122,1 44333U 19034A   20026.25394122 -.00000121 +00000-0 +00000-0 0 0001\,2 44333 000.0232 078.3101 0000635 028.1524 009.1086 01.0026771600226,0.0232,6.35e-05,1.00267716,78.3101,28.1524,9.1086
44333,AT&T T-16,GEO,20027.14427671,1 44333U 19034A   20027.14427671 -.00000121  00000-0  00000+0 0  2949\,2 44333   0.0196  78.5010 0000582  53.3741 305.1020  1.00272364  2260,0.0196,5.82e-05,1.00272364,78.501,53.3741,305.102
